start=new Date('2021-10-01T00:00:00.000Z').valueOf();
sats=[{"CLASSIFICATION_TYPE":"U","GP_ID":"185863392","APOAPSIS":"547.731","EPOCH":"2021-09-30T18:29:52.518336","PERIOD":"95.592","RCS_SIZE":"LARGE","SEMIMAJOR_AXIS":"6925.341","ARG_OF_PERICENTER":"63.5527","TIME_SYSTEM":"UTC","RA_OF_ASC_NODE":"283.2042","REF_FRAME":"TEME","MEAN_ANOMALY":"296.5540","MEAN_ELEMENT_THEORY":"SGP4","EPHEMERIS_TYPE":"0","FILE":"3136999","LAUNCH_DATE":"2019-11-11","REV_AT_EPOCH":"10432","OBJECT_TYPE":"PAYLOAD","ELEMENT_SET_NO":"999","MEAN_MOTION_DDOT":"0.0000000000000","OBJECT_NAME":"STARLINK-1033","SITE":"AFETR","TLE_LINE2":"2 44738  53.0532 283.2042 0000758  63.5527 296.5540 15.06402340104321","MEAN_MOTION":"15.06402340","OBJECT_ID":"2019-074AB","NORAD_CAT_ID":"44738","PERIAPSIS":"546.681","BSTAR":"0.00013605000000","ECCENTRICITY":"0.00007580","COUNTRY_CODE":"US","TLE_LINE1":"1 44738U 19074AB  21273.77074674  .00001746  00000-0  13605-3 0  9990","DECAY_DATE":null,"CENTER_NAME":"EARTH","INCLINATION":"53.0532","MEAN_MOTION_DOT":"0.00001746"},{"MEAN_ELEMENT_THEORY":"SGP4","EPHEMERIS_TYPE":"0","REF_FRAME":"TEME","MEAN_ANOMALY":"279.8674","FILE":"3136969","LAUNCH_DATE":"2019-11-11","REV_AT_EPOCH":"10412","NORAD_CAT_ID":"44739","OBJECT_ID":"2019-074AC","MEAN_MOTION":"15.07540628","PERIAPSIS":"543.114","OBJECT_TYPE":"PAYLOAD","ELEMENT_SET_NO":"999","MEAN_MOTION_DDOT":"0.0000000000000","OBJECT_NAME":"STARLINK-1034","SITE":"AFETR","TLE_LINE2":"2 44739  52.9984 282.1660 0000875  80.2413 279.8674 15.07540628104128","TLE_LINE1":"1 44739U 19074AC  21273.51763276  .00004605  00000-0  31802-3 0  9992","DECAY_DATE":null,"CENTER_NAME":"EARTH","MEAN_MOTION_DOT":"0.00004605","INCLINATION":"52.9984","BSTAR":"0.00031802000000","ECCENTRICITY":"0.00008750","COUNTRY_CODE":"US","GP_ID":"185859916","CLASSIFICATION_TYPE":"U","RCS_SIZE":"LARGE","SEMIMAJOR_AXIS":"6921.855","ARG_OF_PERICENTER":"80.2413","APOAPSIS":"544.326","EPOCH":"2021-09-30T12:25:23.470464","PERIOD":"95.520","RA_OF_ASC_NODE":"282.1660","TIME_SYSTEM":"UTC"},{"GP_ID":"185858165","CLASSIFICATION_TYPE":"U","RA_OF_ASC_NODE":"285.2417","TIME_SYSTEM":"UTC","RCS_SIZE":"LARGE","ARG_OF_PERICENTER":"77.3756","SEMIMAJOR_AXIS":"6925.359","APOAPSIS":"547.719","EPOCH":"2021-09-30T07:37:01.693344","PERIOD":"95.592","LAUNCH_DATE":"2019-11-11","FILE":"3136969","REV_AT_EPOCH":"10409","MEAN_ELEMENT_THEORY":"SGP4","EPHEMERIS_TYPE":"0","MEAN_ANOMALY":"282.7313","REF_FRAME":"TEME","TLE_LINE1":"1 44740U 19074AD  21273.31738071 -.00000558  00000-0 -18580-4 0  9991","DECAY_DATE":null,"CENTER_NAME":"EARTH","MEAN_MOTION_DOT":"-0.00000558","INCLINATION":"53.0542","BSTAR":"-0.00001858000000","COUNTRY_CODE":"US","ECCENTRICITY":"0.00007150","NORAD_CAT_ID":"44740","MEAN_MOTION":"15.06396672","OBJECT_ID":"2019-074AD","PERIAPSIS":"546.729","MEAN_MOTION_DDOT":"0.0000000000000","ELEMENT_SET_NO":"999","OBJECT_TYPE":"PAYLOAD","SITE":"AFETR","TLE_LINE2":"2 44740  53.0542 285.2417 0000715  77.3756 282.7313 15.06396672104092","OBJECT_NAME":"STARLINK-1035"},{"LAUNCH_DATE":"2019-11-11","FILE":"3136969","REV_AT_EPOCH":"10411","MEAN_ELEMENT_THEORY":"SGP4","EPHEMERIS_TYPE":"0","MEAN_ANOMALY":"269.1095","REF_FRAME":"TEME","CENTER_NAME":"EARTH","TLE_LINE1":"1 44741U 19074AE  21273.46114212 -.00000117  00000-0  11050-4 0  9998","DECAY_DATE":null,"INCLINATION":"53.0535","MEAN_MOTION_DOT":"-0.00000117","BSTAR":"0.00001105000000","COUNTRY_CODE":"US","ECCENTRICITY":"0.00007850","OBJECT_ID":"2019-074AE","NORAD_CAT_ID":"44741","MEAN_MOTION":"15.06395045","PERIAPSIS":"546.685","MEAN_MOTION_DDOT":"0.0000000000000","ELEMENT_SET_NO":"999","OBJECT_TYPE":"PAYLOAD","SITE":"AFETR","TLE_LINE2":"2 44741  53.0535 284.6019 0000785  90.9984 269.1095 15.06395045104119","OBJECT_NAME":"STARLINK-1036","CLASSIFICATION_TYPE":"U","GP_ID":"185858415","RA_OF_ASC_NODE":"284.6019","TIME_SYSTEM":"UTC","RCS_SIZE":"LARGE","SEMIMAJOR_AXIS":"6925.364","ARG_OF_PERICENTER":"90.9984","APOAPSIS":"547.772","EPOCH":"2021-09-30T11:04:02.679168","PERIOD":"95.592"},{"NORAD_CAT_ID":"44742","OBJECT_ID":"2019-074AF","MEAN_MOTION":"15.08654187","PERIAPSIS":"538.933","OBJECT_TYPE":"PAYLOAD","ELEMENT_SET_NO":"999","MEAN_MOTION_DDOT":"0.0000000000000","OBJECT_NAME":"STARLINK-1037","TLE_LINE2":"2 44742  52.9972 278.9070 0001995  58.5286 301.5898 15.08654187104170","SITE":"AFETR","TLE_LINE1":"1 44742U 19074AF  21273.51351634  .00004016  00000-0  27162-3 0  9997","DECAY_DATE":null,"CENTER_NAME":"EARTH","MEAN_MOTION_DOT":"0.00004016","INCLINATION":"52.9972","BSTAR":"0.00027162000000","COUNTRY_CODE":"US","ECCENTRICITY":"0.00019950","MEAN_ELEMENT_THEORY":"SGP4","EPHEMERIS_TYPE":"0","REF_FRAME":"TEME","MEAN_ANOMALY":"301.5898","FILE":"3136969","LAUNCH_DATE":"2019-11-11","REV_AT_EPOCH":"10417","RCS_SIZE":"LARGE","SEMIMAJOR_AXIS":"6918.448","ARG_OF_PERICENTER":"58.5286","APOAPSIS":"541.694","EPOCH":"2021-09-30T12:19:27.811776","PERIOD":"95.449","RA_OF_ASC_NODE":"278.9070","TIME_SYSTEM":"UTC","GP_ID":"185859666","CLASSIFICATION_TYPE":"U"},{"TIME_SYSTEM":"UTC","RA_OF_ASC_NODE":"304.9803","EPOCH":"2021-09-30T09:04:36.643296","APOAPSIS":"547.919","PERIOD":"95.592","RCS_SIZE":"LARGE","ARG_OF_PERICENTER":"78.3973","SEMIMAJOR_AXIS":"6925.362","GP_ID":"185859417","CLASSIFICATION_TYPE":"U","BSTAR":"-0.00000516770000","ECCENTRICITY":"0.00009990","COUNTRY_CODE":"US","TLE_LINE1":"1 44743U 19074AG  21273.37820189 -.00000358  00000-0 -51677-5 0  9995","DECAY_DATE":null,"CENTER_NAME":"EARTH","INCLINATION":"53.0530","MEAN_MOTION_DOT":"-0.00000358","MEAN_MOTION_DDOT":"0.0000000000000","OBJECT_TYPE":"PAYLOAD","ELEMENT_SET_NO":"999","SITE":"AFETR","TLE_LINE2":"2 44743  53.0530 304.9803 0000999  78.3973 281.7128 15.06395571103916","OBJECT_NAME":"STARLINK-1038","NORAD_CAT_ID":"44743","OBJECT_ID":"2019-074AG","MEAN_MOTION":"15.06395571","PERIAPSIS":"546.535","LAUNCH_DATE":"2019-11-11","FILE":"3136969","REV_AT_EPOCH":"10391","MEAN_ANOMALY":"281.7128","REF_FRAME":"TEME","MEAN_ELEMENT_THEORY":"SGP4","EPHEMERIS_TYPE":"0"},{"RA_OF_ASC_NODE":"304.9257","TIME_SYSTEM":"UTC","SEMIMAJOR_AXIS":"6925.383","ARG_OF_PERICENTER":"68.9071","RCS_SIZE":"LARGE","PERIOD":"95.593","APOAPSIS":"548.068","EPOCH":"2021-09-30T09:20:32.285184","CLASSIFICATION_TYPE":"U","GP_ID":"185858665","INCLINATION":"53.0542","MEAN_MOTION_DOT":"0.00000059","TLE_LINE1":"1 44744U 19074AH  21273.38926256  .00000059  00000-0  22824-4 0  9996","CENTER_NAME":"EARTH","DECAY_DATE":null,"COUNTRY_CODE":"US","ECCENTRICITY":"0.00011850","BSTAR":"0.00002282400000","PERIAPSIS":"546.427","MEAN_MOTION":"15.06388842","OBJECT_ID":"2019-074AH","NORAD_CAT_ID":"44744","TLE_LINE2":"2 44744  53.0542 304.9257 0001185  68.9071 291.2045 15.06388842103822","SITE":"AFETR","OBJECT_NAME":"STARLINK-1039","MEAN_MOTION_DDOT":"0.0000000000000","ELEMENT_SET_NO":"999","OBJECT_TYPE":"PAYLOAD","REV_AT_EPOCH":"10382","LAUNCH_DATE":"2019-11-11","FILE":"3136969","EPHEMERIS_TYPE":"0","MEAN_ELEMENT_THEORY":"SGP4","MEAN_ANOMALY":"291.2045","REF_FRAME":"TEME"},{"RCS_SIZE":"LARGE","ARG_OF_PERICENTER":"83.1889","SEMIMAJOR_AXIS":"6925.337","APOAPSIS":"547.753","EPOCH":"2021-09-30T10:34:49.825344","PERIOD":"95.592","RA_OF_ASC_NODE":"304.6788","TIME_SYSTEM":"UTC","CLASSIFICATION_TYPE":"U","GP_ID":"185863942","MEAN_MOTION":"15.06403635","OBJECT_ID":"2019-074AK","NORAD_CAT_ID":"44746","PERIAPSIS":"546.652","MEAN_MOTION_DDOT":"0.0000000000000","ELEMENT_SET_NO":"999","OBJECT_TYPE":"PAYLOAD","SITE":"AFETR","TLE_LINE2":"2 44746  53.0541 304.6788 0000795  83.1889 276.9190 15.06403635104001","OBJECT_NAME":"STARLINK-1041","TLE_LINE1":"1 44746U 19074AK  21273.44085446 -.00000300  00000-0 -12390-5 0  9991","CENTER_NAME":"EARTH","DECAY_DATE":null,"MEAN_MOTION_DOT":"-0.00000300","INCLINATION":"53.0541","BSTAR":"-0.00000123900000","COUNTRY_CODE":"US","ECCENTRICITY":"0.00007950","MEAN_ELEMENT_THEORY":"SGP4","EPHEMERIS_TYPE":"0","MEAN_ANOMALY":"276.9190","REF_FRAME":"TEME","LAUNCH_DATE":"2019-11-11","FILE":"3137007","REV_AT_EPOCH":"10400"},{"CLASSIFICATION_TYPE":"U","GP_ID":"185859167","APOAPSIS":"547.988","EPOCH":"2021-09-30T11:17:18.371328","PERIOD":"95.592","RCS_SIZE":"LARGE","ARG_OF_PERICENTER":"93.7456","SEMIMAJOR_AXIS":"6925.362","TIME_SYSTEM":"UTC","RA_OF_ASC_NODE":"304.5669","REF_FRAME":"TEME","MEAN_ANOMALY":"266.3658","MEAN_ELEMENT_THEORY":"SGP4","EPHEMERIS_TYPE":"0","FILE":"3136969","LAUNCH_DATE":"2019-11-11","REV_AT_EPOCH":"10384","ELEMENT_SET_NO":"999","OBJECT_TYPE":"PAYLOAD","MEAN_MOTION_DDOT":"0.0000000000000","OBJECT_NAME":"STARLINK-1042","TLE_LINE2":"2 44747  53.0530 304.5669 0001098  93.7456 266.3658 15.06395539103847","SITE":"AFETR","OBJECT_ID":"2019-074AL","NORAD_CAT_ID":"44747","MEAN_MOTION":"15.06395539","PERIAPSIS":"546.467","BSTAR":"0.00012442000000","COUNTRY_CODE":"US","ECCENTRICITY":"0.00010980","CENTER_NAME":"EARTH","TLE_LINE1":"1 44747U 19074AL  21273.47035152  .00001572  00000-0  12442-3 0  9990","DECAY_DATE":null,"MEAN_MOTION_DOT":"0.00001572","INCLINATION":"53.0530"},{"LAUNCH_DATE":"2019-11-11","FILE":"3137007","REV_AT_EPOCH":"10401","MEAN_ANOMALY":"282.2979","REF_FRAME":"TEME","MEAN_ELEMENT_THEORY":"SGP4","EPHEMERIS_TYPE":"0","BSTAR":"0.00003204000000","COUNTRY_CODE":"US","ECCENTRICITY":"0.00009040","TLE_LINE1":"1 44748U 19074AM  21273.49984082  .00000196  00000-0  32040-4 0  9996","DECAY_DATE":null,"CENTER_NAME":"EARTH","MEAN_MOTION_DOT":"0.00000196","INCLINATION":"53.0535","MEAN_MOTION_DDOT":"0.0000000000000","ELEMENT_SET_NO":"999","OBJECT_TYPE":"PAYLOAD","TLE_LINE2":"2 44748  53.0535 304.4232 0000904  77.8111 282.2979 15.06394962104016","SITE":"AFETR","OBJECT_NAME":"STARLINK-1043","OBJECT_ID":"2019-074AM","MEAN_MOTION":"15.06394962","NORAD_CAT_ID":"44748","PERIAPSIS":"546.603","GP_ID":"185863939","CLASSIFICATION_TYPE":"U","TIME_SYSTEM":"UTC","RA_OF_ASC_NODE":"304.4232","EPOCH":"2021-09-30T11:59:46.246848","APOAPSIS":"547.855","PERIOD":"95.592","RCS_SIZE":"LARGE","ARG_OF_PERICENTER":"77.8111","SEMIMAJOR_AXIS":"6925.364"}];
